NORAD_CAT_ID,OBJECT_NAME,OBJECT_TYPE,EPOCH,MEAN_MOTION,ECCENTRICITY,INCLINATION,RA_OF_ASC_NODE,ARG_OF_PERICENTER,MEAN_ANOMALY,BSTAR,MEAN_MOTION_DOT,MEAN_MOTION_DDOT,TLE_LINE0,TLE_LINE1,TLE_LINE2,SEMIMAJOR_AXIS,PERIOD,APOGEE,PERIGEE,DECAYED
49749,STARLINK-3250,PAYLOAD,2023-07-30 02:47:17,15.08847545,0.0001212,53.2171,109.8791,99.0589,261.054,0.00021656,3.161e-05,0.0,0 STARLINK-3250,1 49749U 21115AB  23211.11617134  .00003161  00000-0  21656-3 0  9990,2 49749  53.2171 109.8791 0001212  99.0589 261.0540 15.08847545 92685,6917.857,95.437,540.561,538.884,0.0
49749,STARLINK-3250,PAYLOAD,2023-07-31 01:02:41,15.08846884,0.0001092,53.2157,105.7171,85.7773,274.3343,6.2794e-05,7.12e-06,0.0,0 STARLINK-3250,1 49749U 21115AB  23212.04353448  .00000712  00000-0  62794-4 0  9996,2 49749  53.2157 105.7171 0001092  85.7773 274.3343 15.08846884 92828,6917.859,95.437,540.48,538.969,0.0
49749,STARLINK-3250,PAYLOAD,2023-07-31 16:56:33,15.08837267,0.0001151,53.2156,102.7437,87.6642,272.4482,4.4429e-05,4.19e-06,0.0,0 STARLINK-3250,1 49749U 21115AB  23212.70594019  .00000419  00000-0  44429-4 0  9999,2 49749  53.2156 102.7437 0001151  87.6642 272.4482 15.08837267 92920,6917.889,95.438,540.55,538.957,0.0
49749,STARLINK-3250,PAYLOAD,2023-08-01 21:33:29,15.08838857,0.0001215,53.2165,97.3894,107.4249,252.6876,1.6128e-05,-3.1e-07,0.0,0 STARLINK-3250,1 49749U 21115AB  23213.89826021 -.00000031  00000-0  16128-4 0  9997,2 49749  53.2165  97.3894 0001215 107.4249 252.6876 15.08838857 93105,6917.884,95.438,540.589,538.908,0.0
49749,STARLINK-3250,PAYLOAD,2023-08-02 22:59:39,15.08845812,0.00011,53.2168,92.6309,109.8962,250.2149,0.00011772,1.586e-05,0.0,0 STARLINK-3250,1 49749U 21115AB  23214.95809664  .00001586  00000-0  11772-3 0  9993,2 49749  53.2168  92.6309 0001100 109.8962 250.2149 15.08845812 93261,6917.863,95.437,540.489,538.967,0.0
49749,STARLINK-3250,PAYLOAD,2023-08-03 18:04:17,15.08835453,8.34e-05,53.2157,89.0631,121.5643,238.5431,1.7038e-06,-2.61e-06,0.0,0 STARLINK-3250,1 49749U 21115AB  23215.75298178 -.00000261  00000-0  17038-5 0  9997,2 49749  53.2157  89.0631 0000834 121.5643 238.5431 15.08835453 93383,6917.894,95.438,540.336,539.182,0.0
49749,STARLINK-3250,PAYLOAD,2023-08-04 22:41:13,15.08845995,7.4e-05,53.2156,83.7118,100.5738,259.5337,6.2122e-05,7.01e-06,0.0,0 STARLINK-3250,1 49749U 21115AB  23216.94529949  .00000701  00000-0  62122-4 0  9993,2 49749  53.2156  83.7118 0000740 100.5738 259.5337 15.08845995 93561,6917.862,95.437,540.239,539.215,0.0
49749,STARLINK-3250,PAYLOAD,2023-08-06 00:07:23,15.08860623,7.27e-05,53.2152,78.9535,87.564,272.5435,0.0004372,6.681e-05,0.0,0 STARLINK-3250,1 49749U 21115AB  23218.00513193  .00006681  00000-0  43720-3 0  9991,2 49749  53.2152  78.9535 0000727  87.5640 272.5435 15.08860623 93724,6917.817,95.436,540.185,539.179,0.0
49749,STARLINK-3250,PAYLOAD,2023-08-06 08:04:20,15.08831659,9.75e-05,53.2152,77.4666,67.7899,292.3197,-0.00011423,-2.105e-05,0.0,0 STARLINK-3250,1 49749U 21115AB  23218.33634414 -.00002105  00000-0 -11423-3 0  9991,2 49749  53.2152  77.4666 0000975  67.7899 292.3197 15.08831659 93771,6917.906,95.438,540.445,539.096,0.0
49749,STARLINK-3250,PAYLOAD,2023-08-06 20:47:25,15.08821459,7.14e-05,53.2155,75.0865,76.8025,283.3047,-0.00022632,-3.886e-05,0.0,0 STARLINK-3250,1 49749U 21115AB  23218.86627277 -.00003886  00000-0 -22632-3 0  9999,2 49749  53.2155  75.0865 0000714  76.8025 283.3047 15.08821459 93852,6917.937,95.439,540.296,539.308,0.0
49749,STARLINK-3250,PAYLOAD,2023-08-07 17:27:27,15.08834587,8.44e-05,53.2153,71.2218,53.7599,306.3471,0.0004341,6.627e-05,0.0,0 STARLINK-3250,1 49749U 21115AB  23219.72739971  .00006627  00000-0  43410-3 0  9991,2 49749  53.2153  71.2218 0000844  53.7599 306.3471 15.08834587 93981,6917.897,95.438,540.346,539.178,0.0
49749,STARLINK-3250,PAYLOAD,2023-08-07 23:49:00,15.08845327,8.62e-05,53.2159,70.0311,52.8653,307.2418,0.00095557,0.00014955,0.0,0 STARLINK-3250,1 49749U 21115AB  23219.99236113  .00014955  00000-0  95557-3 0  9992,2 49749  53.2159  70.0311 0000862  52.8653 307.2418 15.08845327 94020,6917.864,95.437,540.325,539.133,0.0
49749,STARLINK-3250,PAYLOAD,2023-08-08 23:39:45,15.08885852,8.92e-05,53.2161,65.5708,48.0327,312.0741,0.0012539,0.00019749,0.0,0 STARLINK-3250,1 49749U 21115AB  23220.98594346  .00019749  00000-0  12539-2 0  9992,2 49749  53.2161  65.5708 0000892  48.0327 312.0741 15.08885852 94176,6917.74,95.435,540.222,538.988,0.0
49749,STARLINK-3250,PAYLOAD,2023-08-09 17:09:00,15.08851449,0.0001983,53.2161,62.2963,71.4053,288.7154,0.00012801,1.75e-05,0.0,0 STARLINK-3250,1 49749U 21115AB  23221.71458944  .00001750  00000-0  12801-3 0  9993,2 49749  53.2161  62.2963 0001983  71.4053 288.7154 15.08851449 94285,6917.845,95.437,541.082,538.339,0.0
49749,STARLINK-3250,PAYLOAD,2023-08-10 20:10:33,15.08841206,9.64e-05,53.2146,57.2466,81.4885,278.6216,0.00041435,6.313e-05,0.0,0 STARLINK-3250,1 49749U 21115AB  23222.84066632  .00006313  00000-0  41435-3 0  9992,2 49749  53.2146  57.2466 0000964  81.4885 278.6216 15.08841206 94458,6917.877,95.437,540.409,539.075,0.0
49749,STARLINK-3250,PAYLOAD,2023-08-11 05:42:52,15.08839758,0.0001086,53.2156,55.4602,69.4372,290.6737,0.00013813,1.911e-05,0.0,0 STARLINK-3250,1 49749U 21115AB  23223.23810852  .00001911  00000-0  13813-3 0  9995,2 49749  53.2156  55.4602 0001086  69.4372 290.6737 15.08839758 94512,6917.881,95.438,540.497,538.995,0.0
49749,STARLINK-3250,PAYLOAD,2023-08-12 07:09:02,15.08841238,7.46e-05,53.2158,50.7033,87.4331,272.6746,0.00010755,1.424e-05,0.0,0 STARLINK-3250,1 49749U 21115AB  23224.29794732  .00001424  00000-0  10755-3 0  9991,2 49749  53.2158  50.7033 0000746  87.4331 272.6746 15.08841238 94670,6917.877,95.437,540.258,539.226,0.0
49749,STARLINK-3250,PAYLOAD,2023-08-13 11:45:59,15.08844633,0.0001059,53.2153,45.3496,77.0509,283.0602,0.00017496,2.498e-05,0.0,0 STARLINK-3250,1 49749U 21115AB  23225.49026749  .00002498  00000-0  17496-3 0  9991,2 49749  53.2153  45.3496 0001059  77.0509 283.0602 15.08844633 94857,6917.866,95.437,540.464,538.999,0.0
49749,STARLINK-3250,PAYLOAD,2023-08-13 18:07:32,15.08836508,6.93e-05,53.216,44.1616,76.8822,283.2248,3.9063e-05,3.34e-06,0.0,0 STARLINK-3250,1 49749U 21115AB  23225.75523193  .00000334  00000-0  39063-4 0  9997,2 49749  53.2160  44.1616 0000693  76.8822 283.2248 15.08836508 94898,6917.891,95.438,540.235,539.277,0.0
49749,STARLINK-3250,PAYLOAD,2023-08-14 22:44:27,15.08850016,7.26e-05,53.217,38.8091,76.285,283.8223,0.0001126,1.505e-05,0.0,0 STARLINK-3250,1 49749U 21115AB  23226.94754525  .00001505  00000-0  11260-3 0  9993,2 49749  53.2170  38.8091 0000726  76.2850 283.8223 15.08850016 95078,6917.85,95.437,540.217,539.213,0.0
49749,STARLINK-3250,PAYLOAD,2023-08-15 05:06:01,15.08838905,0.0001056,53.2159,37.6204,70.7811,289.3296,0.00010086,1.318e-05,0.0,0 STARLINK-3250,1 49749U 21115AB  23227.21251364  .00001318  00000-0  10086-3 0  9994,2 49749  53.2159  37.6204 0001056  70.7811 289.3296 15.08838905 95110,6917.884,95.438,540.479,539.018,0.0
49749,STARLINK-3250,PAYLOAD,2023-08-15 17:49:05,15.08845589,9.88e-05,53.2155,35.2376,90.503,269.6075,0.00020274,2.941e-05,0.0,0 STARLINK-3250,1 49749U 21115AB  23227.74242656  .00002941  00000-0  20274-3 0  9999,2 49749  53.2155  35.2376 0000988  90.5030 269.6075 15.08845589 95196,6917.863,95.437,540.412,539.045,0.0
49749,STARLINK-3250,PAYLOAD,2023-08-16 11:18:20,15.08836544,7.77e-05,53.2166,31.9667,104.2004,255.9074,0.00010016,1.307e-05,0.0,0 STARLINK-3250,1 49749U 21115AB  23228.47107439  .00001307  00000-0  10016-3 0  9997,2 49749  53.2166  31.9667 0000777 104.2004 255.9074 15.08836544 95305,6917.891,95.438,540.293,539.218,0.0
49749,STARLINK-3250,PAYLOAD,2023-08-17 17:30:40,15.08843306,7.26e-05,53.217,26.3199,87.3543,272.7532,9.633e-05,1.246e-05,0.0,0 STARLINK-3250,1 49749U 21115AB  23229.72963026  .00001246  00000-0  96330-4 0  9994,2 49749  53.2170  26.3199 0000726  87.3543 272.7532 15.08843306 95491,6917.87,95.437,540.238,539.233,0.0
49749,STARLINK-3250,PAYLOAD,2023-08-18 09:24:32,15.08824243,7.62e-05,53.2174,23.3467,83.4912,276.6167,0.00021302,3.103e-05,0.0,0 STARLINK-3250,1 49749U 21115AB  23230.39204243  .00003103  00000-0  21302-3 0  9998,2 49749  53.2174  23.3467 0000762  83.4912 276.6167 15.08824243 95594,6917.929,95.439,540.321,539.266,0.0
49749,STARLINK-3250,PAYLOAD,2023-08-18 17:21:27,15.08837437,6e-05,53.218,21.8599,77.7726,282.3333,3.5095e-05,2.71e-06,0.0,0 STARLINK-3250,1 49749U 21115AB  23230.72323658  .00000271  00000-0  35095-4 0  9995,2 49749  53.2180  21.8599 0000600  77.7726 282.3333 15.08837437 95644,6917.888,95.438,540.168,539.338,0.0
49749,STARLINK-3250,PAYLOAD,2023-08-20 09:06:06,15.08832164,0.0001018,53.2171,14.4242,102.2819,257.8288,8.0997e-05,1.001e-05,0.0,0 STARLINK-3250,1 49749U 21115AB  23232.37924341  .00001001  00000-0  80997-4 0  9997,2 49749  53.2171  14.4242 0001018 102.2819 257.8288 15.08832164 95893,6917.904,95.438,540.474,539.065,0.0
49749,STARLINK-3250,PAYLOAD,2023-08-20 17:03:02,15.08828582,6.71e-05,53.2181,12.9389,70.8979,289.2086,2.5775e-05,1.23e-06,0.0,0 STARLINK-3250,1 49749U 21115AB  23232.71045090  .00000123  00000-0  25775-4 0  9997,2 49749  53.2181  12.9389 0000671  70.8979 289.2086 15.08828582 95940,6917.915,95.438,540.244,539.316,0.0
49749,STARLINK-3250,PAYLOAD,2023-08-21 02:35:21,15.08837176,8.09e-05,53.2179,11.1538,81.492,278.6164,8.887e-05,1.127e-05,0.0,0 STARLINK-3250,1 49749U 21115AB  23233.10788506  .00001127  00000-0  88870-4 0  9997,2 49749  53.2179  11.1538 0000809  81.4920 278.6164 15.08837176 96007,6917.889,95.438,540.314,539.194,0.0
49749,STARLINK-3250,PAYLOAD,2023-08-21 16:53:48,15.08859251,7.42e-05,53.2181,8.4781,71.3176,288.7896,0.00017381,2.481e-05,0.0,0 STARLINK-3250,1 49749U 21115AB  23233.70403058  .00002481  00000-0  17381-3 0  9991,2 49749  53.2181   8.4781 0000742  71.3176 288.7896 15.08859251 96097,6917.822,95.436,540.2,539.173,0.0
